{
  "norad_id": 41948,
  "name": "CARTOSAT-2D",
  "history": [
    {
      "epoch": "2026-03-27T16:27:35.970336",
      "apogee_km": 511.82577313482034,
      "perigee_km": 504.345957858317,
      "latitude_deg": -0.9331861479176515,
      "longitude_deg": 144.63996703992598,
      "semi_major_axis_km": 6886.222865496568,
      "eccentricity": 0.0005431,
      "inclination_deg": 97.4195,
      "raan_deg": 147.4754,
      "arg_perigee_deg": 156.1008,
      "mean_anomaly_deg": 204.048,
      "mean_motion_rev_day": 15.19256667
    }
  ]
}